{"type": "FeatureCollection", "features": [ {"type": "Feature", "properties": {"norad_id": 58654, "name": "BEIDOU-3 M28 (C50)", "group": "beidou", "lat": 4.288386912481229, "lon": 71.38358069372005, "alt_km": 21528.43563125804, "timestamp": "2025-12-17T19:34:08.304166+00:00", "meta": {"OBJECT_NAME": "BEIDOU-3 M28 (C50)", "OBJECT_ID": "2023-207A", "EPOCH": "2025-12-15T15:50:05.112096", "MEAN_MOTION": 1.8622982, "ECCENTRICITY": 0.00025263, "INCLINATION": 55.587, "RA_OF_ASC_NODE": 68.5025, "ARG_OF_PERICENTER": 270.8998, "MEAN_ANOMALY": 89.0909, "EPHEMERIS_TYPE": 0, "CLASSIFICATION_TYPE": "U", "NORAD_CAT_ID": 58654, "ELEMENT_SET_NO": 999, "REV_AT_EPOCH": 1342, "BSTAR": 0, "MEAN_MOTION_DOT": -8.4e-07, "MEAN_MOTION_DDOT": 0}, "tle": {"line1": "1 58654U 23207A   25349.65978139 -.00000084  00000+0  00000+0 0  9994", "line2": "2 58654  55.5870  68.5025 0002526 270.8998  89.0909  1.86229820 13427"}}, "geometry": {"type": "Point", "coordinates": [71.38358069372005, 4.288386912481229]}}, {"type": "Feature", "properties": {"norad_id": 58655, "name": "BEIDOU-3 M26 (C48)", "group": "beidou", "lat": 31.396119582753496, "lon": -136.25880458477806, "alt_km": 21529.02813779023, "timestamp": "2025-12-17T19:34:08.304177+00:00", "meta": {"OBJECT_NAME": "BEIDOU-3 M26 (C48)", "OBJECT_ID": "2023-207B", "EPOCH": "2025-12-15T23:51:52.176960", "MEAN_MOTION": 1.86231301, "ECCENTRICITY": 0.00039507, "INCLINATION": 55.5893, "RA_OF_ASC_NODE": 68.4775, "ARG_OF_PERICENTER": 256.9, "MEAN_ANOMALY": 103.0764, "EPHEMERIS_TYPE": 0, "CLASSIFICATION_TYPE": "U", "NORAD_CAT_ID": 58655, "ELEMENT_SET_NO": 999, "REV_AT_EPOCH": 1341, "BSTAR": 0, "MEAN_MOTION_DOT": -8.2e-07, "MEAN_MOTION_DDOT": 0}, "tle": {"line1": "1 58655U 23207B   25349.99435390 -.00000082  00000+0  00000+0 0  9997", "line2": "2 58655  55.5893  68.4775 0003950 256.9000 103.0764  1.86231301 13417"}}, "geometry": {"type": "Point", "coordinates": [-136.25880458477806, 31.396119582753496]}}, {"type": "Feature", "properties": {"norad_id": 61186, "name": "BEIDOU-3 M25 (C47)", "group": "beidou", "lat": -52.84773882559795, "lon": -162.0123777178795, "alt_km": 21522.373910985127, "timestamp": "2025-12-17T19:34:08.304188+00:00", "meta": {"OBJECT_NAME": "BEIDOU-3 M25 (C47)", "OBJECT_ID": "2024-168B", "EPOCH": "2025-12-16T21:28:07.627872", "MEAN_MOTION": 1.86230288, "ECCENTRICITY": 0.00054374, "INCLINATION": 54.6383, "RA_OF_ASC_NODE": 308.576, "ARG_OF_PERICENTER": 298.7489, "MEAN_ANOMALY": 61.643, "EPHEMERIS_TYPE": 0, "CLASSIFICATION_TYPE": "U", "NORAD_CAT_ID": 61186, "ELEMENT_SET_NO": 999, "REV_AT_EPOCH": 839, "BSTAR": 0, "MEAN_MOTION_DOT": -9.4e-07, "MEAN_MOTION_DDOT": 0}, "tle": {"line1": "1 61186U 24168B   25350.89453273 -.00000094  00000+0  00000+0 0  9991", "line2": "2 61186  54.6383 308.5760 0005437 298.7489  61.6430  1.86230288  8396"}}, "geometry": {"type": "Point", "coordinates": [-162.0123777178795, -52.84773882559795]}}, {"type": "Feature", "properties": {"norad_id": 61187, "name": "BEIDOU-3 M27 (C49)", "group": "beidou", "lat": 26.180794238371387, "lon": -31.074107543520046, "alt_km": 21520.83434973296, "timestamp": "2025-12-17T19:34:08.304199+00:00", "meta": {"OBJECT_NAME": "BEIDOU-3 M27 (C49)", "OBJECT_ID": "2024-168C", "EPOCH": "2025-12-17T05:27:07.832736", "MEAN_MOTION": 1.86230439, "ECCENTRICITY": 0.00024902, "INCLINATION": 54.6334, "RA_OF_ASC_NODE": 308.5482, "ARG_OF_PERICENTER": 338.8897, "MEAN_ANOMALY": 19.4657, "EPHEMERIS_TYPE": 0, "CLASSIFICATION_TYPE": "U", "NORAD_CAT_ID": 61187, "ELEMENT_SET_NO": 999, "REV_AT_EPOCH": 586, "BSTAR": 0, "MEAN_MOTION_DOT": -9.2e-07, "MEAN_MOTION_DDOT": 0}, "tle": {"line1": "1 61187U 24168C   25351.22717399 -.00000092  00000+0  00000+0 0  9990", "line2": "2 61187  54.6334 308.5482 0002490 338.8897  19.4657  1.86230439  5868"}}, "geometry": {"type": "Point", "coordinates": [-31.074107543520046, 26.180794238371387]}}]}